{
  "type": "FeatureCollection",
  "features": [
    {
      "type": "Feature",
      "properties": {
        "norad_id": 28899,
        "name": "INMARSAT 4-F2 (SOUTHPAN/PRN 122)",
        "group": "gnss",
        "lat": 1.4441675936898617,
        "lon": -153.726583879646,
        "alt_km": 35779.868479303455,
        "timestamp": "2025-12-13T22:39:29.950602+00:00",
        "meta_object_name": "INMARSAT 4-F2 (SOUTHPAN/PRN 122)",
        "meta_object_id": "2005-044A",
        "meta_epoch": "2025-12-12T22:43:03.945216",
        "meta_mean_motion": 1.00271372,
        "meta_eccentricity": 0.00028746,
        "meta_inclination": 4.8531,
        "meta_ra_of_asc_node": 43.693,
        "meta_arg_of_pericenter": 221.7243,
        "meta_mean_anomaly": 300.739,
        "meta_ephemeris_type": 0,
        "meta_classification_type": "U",
        "meta_norad_cat_id": 28899,
        "meta_element_set_no": 999,
        "meta_rev_at_epoch": 7365,
        "meta_bstar": 0,
        "meta_mean_motion_dot": -2.5e-06,
        "meta_mean_motion_ddot": 0,
        "tle_line1": "1 28899U 05044A   25346.94657344 -.00000250  00000+0  00000+0 0  9997",
        "tle_line2": "2 28899   4.8531  43.6930 0002874 221.7243 300.7390  1.00271372 73652"
      },
      "geometry": {
        "type": "Point",
        "coordinates": [
          -153.726583879646,
          1.4441675936898617
        ]
      }
    },
    {
      "type": "Feature",
      "properties": {
        "norad_id": 29486,
        "name": "GPS BIIRM-2 (PRN 31)",
        "group": "gnss",
        "lat": -43.36003861678068,
        "lon": 116.66445884578576,
        "alt_km": 20279.6256595862,
        "timestamp": "2025-12-13T22:39:29.950618+00:00",
        "meta_object_name": "GPS BIIRM-2 (PRN 31)",
        "meta_object_id": "2006-042A",
        "meta_epoch": "2025-12-12T12:13:56.756352",
        "meta_mean_motion": 2.00554178,
        "meta_eccentricity": 0.01073525,
        "meta_inclination": 54.6941,
        "meta_ra_of_asc_node": 158.7498,
        "meta_arg_of_pericenter": 51.9566,
        "meta_mean_anomaly": 296.2293,
        "meta_ephemeris_type": 0,
        "meta_classification_type": "U",
        "meta_norad_cat_id": 29486,
        "meta_element_set_no": 999,
        "meta_rev_at_epoch": 14064,
        "meta_bstar": 0,
        "meta_mean_motion_dot": 9.7e-07,
        "meta_mean_motion_ddot": 0,
        "tle_line1": "1 29486U 06042A   25346.50968468  .00000097  00000+0  00000+0 0  9991",
        "tle_line2": "2 29486  54.6941 158.7498 0107352  51.9566 296.2293  2.00554178140642"
      },
      "geometry": {
        "type": "Point",
        "coordinates": [
          116.66445884578576,
          -43.36003861678068
        ]
      }
    },
    {
      "type": "Feature",
      "properties": {
        "norad_id": 29601,
        "name": "GPS BIIRM-3 (PRN 12)",
        "group": "gnss",
        "lat": 0.4266363359907589,
        "lon": -138.34324713010759,
        "alt_km": 20166.835949595326,
        "timestamp": "2025-12-13T22:39:29.950643+00:00",
        "meta_object_name": "GPS BIIRM-3 (PRN 12)",
        "meta_object_id": "2006-052A",
        "meta_epoch": "2025-12-11T22:46:47.068032",
        "meta_mean_motion": 2.00573524,
        "meta_eccentricity": 0.00877389,
        "meta_inclination": 54.9707,
        "meta_ra_of_asc_node": 221.4296,
        "meta_arg_of_pericenter": 87.4221,
        "meta_mean_anomaly": 273.6564,
        "meta_ephemeris_type": 0,
        "meta_classification_type": "U",
        "meta_norad_cat_id": 29601,
        "meta_element_set_no": 999,
        "meta_rev_at_epoch": 13965,
        "meta_bstar": 0,
        "meta_mean_motion_dot": 9e-08,
        "meta_mean_motion_ddot": 0,
        "tle_line1": "1 29601U 06052A   25345.94915588  .00000009  00000+0  00000+0 0  9996",
        "tle_line2": "2 29601  54.9707 221.4296 0087738  87.4221 273.6564  2.00573524139650"
      },
      "geometry": {
        "type": "Point",
        "coordinates": [
          -138.34324713010759,
          0.4266363359907589
        ]
      }
    },
    {
      "type": "Feature",
      "properties": {
        "norad_id": 32260,
        "name": "GPS BIIRM-4 (PRN 15)",
        "group": "gnss",
        "lat": 28.99566454142407,
        "lon": -116.0671722421619,
        "alt_km": 19942.236599237785,
        "timestamp": "2025-12-13T22:39:29.950659+00:00",
        "meta_object_name": "GPS BIIRM-4 (PRN 15)",
        "meta_object_id": "2007-047A",
        "meta_epoch": "2025-12-13T06:02:59.943552",
        "meta_mean_motion": 2.00564506,
        "meta_eccentricity": 0.01641392,
        "meta_inclination": 53.9555,
        "meta_ra_of_asc_node": 87.7372,
        "meta_arg_of_pericenter": 85.2518,
        "meta_mean_anomaly": 276.6128,
        "meta_ephemeris_type": 0,
        "meta_classification_type": "U",
        "meta_norad_cat_id": 32260,
        "meta_element_set_no": 999,
        "meta_rev_at_epoch": 13308,
        "meta_bstar": 0,
        "meta_mean_motion_dot": -3.9e-07,
        "meta_mean_motion_ddot": 0,
        "tle_line1": "1 32260U 07047A   25347.25208268 -.00000039  00000+0  00000+0 0  9996",
        "tle_line2": "2 32260  53.9555  87.7372 0164139  85.2518 276.6128  2.00564506133089"
      },
      "geometry": {
        "type": "Point",
        "coordinates": [
          -116.0671722421619,
          28.99566454142407
        ]
      }
    },
    {
      "type": "Feature",
      "properties": {
        "norad_id": 32275,
        "name": "COSMOS 2433 (720)",
        "group": "gnss",
        "lat": -55.18988034847972,
        "lon": -78.40571090282009,
        "alt_km": 19125.521255720312,
        "timestamp": "2025-12-13T22:39:29.950673+00:00",
        "meta_object_name": "COSMOS 2433 (720)",
        "meta_object_id": "2007-052A",
        "meta_epoch": "2025-12-10T06:34:19.673184",
        "meta_mean_motion": 2.13103813,
        "meta_eccentricity": 0.00055546,
        "meta_inclination": 65.6847,
        "meta_ra_of_asc_node": 322.2886,
        "meta_arg_of_pericenter": 252.6006,
        "meta_mean_anomaly": 107.3381,
        "meta_ephemeris_type": 0,
        "meta_classification_type": "U",
        "meta_norad_cat_id": 32275,
        "meta_element_set_no": 999,
        "meta_rev_at_epoch": 14103,
        "meta_bstar": 0,
        "meta_mean_motion_dot": -5e-07,
        "meta_mean_motion_ddot": 0,
        "tle_line1": "1 32275U 07052A   25344.27383881 -.00000050  00000+0  00000+0 0  9995",
        "tle_line2": "2 32275  65.6847 322.2886 0005554 252.6006 107.3381  2.13103813141032"
      },
      "geometry": {
        "type": "Point",
        "coordinates": [
          -78.40571090282009,
          -55.18988034847972
        ]
      }
    },
    {
      "type": "Feature",
      "properties": {
        "norad_id": 32276,
        "name": "COSMOS 2432 (719)",
        "group": "gnss",
        "lat": -52.13290369109361,
        "lon": 177.8034207108942,
        "alt_km": 19126.59298459534,
        "timestamp": "2025-12-13T22:39:29.950685+00:00",
        "meta_object_name": "COSMOS 2432 (719)",
        "meta_object_id": "2007-052B",
        "meta_epoch": "2025-12-10T13:56:19.351392",
        "meta_mean_motion": 2.13102999,
        "meta_eccentricity": 0.0011254,
        "meta_inclination": 65.7001,
        "meta_ra_of_asc_node": 322.4023,
        "meta_arg_of_pericenter": 311.5771,
        "meta_mean_anomaly": 228.309,
        "meta_ephemeris_type": 0,
        "meta_classification_type": "U",
        "meta_norad_cat_id": 32276,
        "meta_element_set_no": 999,
        "meta_rev_at_epoch": 14106,
        "meta_bstar": 0,
        "meta_mean_motion_dot": -5e-07,
        "meta_mean_motion_ddot": 0,
        "tle_line1": "1 32276U 07052B   25344.58077953 -.00000050  00000+0  00000+0 0  9990",
        "tle_line2": "2 32276  65.7001 322.4023 0011254 311.5771 228.3090  2.13102999141067"
      },
      "geometry": {
        "type": "Point",
        "coordinates": [
          177.8034207108942,
          -52.13290369109361
        ]
      }
    },
    {
      "type": "Feature",
      "properties": {
        "norad_id": 32384,
        "name": "GPS BIIRM-5 (PRN 29)",
        "group": "gnss",
        "lat": -55.17882587033802,
        "lon": -166.35821877460774,
        "alt_km": 20214.210220489447,
        "timestamp": "2025-12-13T22:39:29.950697+00:00",
        "meta_object_name": "GPS BIIRM-5 (PRN 29)",
        "meta_object_id": "2007-062A",
        "meta_epoch": "2025-12-13T07:26:31.680096",
        "meta_mean_motion": 2.00577339,
        "meta_eccentricity": 0.00322377,
        "meta_inclination": 55.1816,
        "meta_ra_of_asc_node": 281.623,
        "meta_arg_of_pericenter": 162.4378,
        "meta_mean_anomaly": 10.5516,
        "meta_ephemeris_type": 0,
        "meta_classification_type": "U",
        "meta_norad_cat_id": 32384,
        "meta_element_set_no": 999,
        "meta_rev_at_epoch": 13178,
        "meta_bstar": 0,
        "meta_mean_motion_dot": -8e-07,
        "meta_mean_motion_ddot": 0,
        "tle_line1": "1 32384U 07062A   25347.31008889 -.00000080  00000+0  00000+0 0  9990",
        "tle_line2": "2 32384  55.1816 281.6230 0032237 162.4378  10.5516  2.00577339131782"
      },
      "geometry": {
        "type": "Point",
        "coordinates": [
          -166.35821877460774,
          -55.17882587033802
        ]
      }
    }
  ]
}